ONEWEB-0130             
1 47276U 20100U   26201.35303736 -.00000292  00000+0 -84745-3 0  9995
2 47276  87.8980 344.0600 0001959  98.5367 261.5984 13.12443964268993
ONEWEB-0131             
1 47277U 20100V   26201.34965246 -.00000355  00000+0 -10231-2 0  9993
2 47277  87.8967 344.0750 0001889 102.3665 257.7675 13.12442939269033
ONEWEB-0132             
1 47278U 20100W   26201.37845469  .00000380  00000+0  10218-2 0  9992
2 47278  87.8968 344.0724 0001872  99.2363 260.8977 13.12443490268938
ONEWEB-0133             
1 47279U 20100X   26201.39524741  .00000359  00000+0  96372-3 0  9994
2 47279  87.8986 344.0483 0001791  99.4130 260.7201 13.12443203269094
ONEWEB-0134             
1 47280U 20100Y   26201.36489887 -.00000053  00000+0 -18307-3 0  9999
2 47280  87.8981 344.0518 0002098 101.0216 259.1149 13.12443755269068
ONEWEB-0135             
1 47281U 20100Z   26201.33609023 -.00000201  00000+0 -59418-3 0  9996
2 47281  87.8968 344.0759 0002042 104.3003 255.8352 13.12442521269081
ONEWEB-0136             
1 47282U 20100AA  26201.35472759 -.00000269  00000+0 -78434-3 0  9996
2 47282  87.8976 344.0564 0002135 101.8505 258.2863 13.12443728269014
ONEWEB-0137             
1 47283U 20100AB  26201.38861413  .00000499  00000+0  13519-2 0  9994
2 47283  87.8985 344.0608 0001783  94.3417 265.7915 13.12443754268929
ONEWEB-0138             
1 47284U 20100AC  26201.36659453  .00000030  00000+0  47259-4 0  9993
2 47284  87.8978 344.0701 0002078  98.7792 261.3572 13.12443973269002
ONEWEB-0139             
1 47285U 20100AD  26201.33116159 -.00000082  00000+0 -26306-3 0  9990
2 47285  87.8978 344.0626 0001910  95.7354 264.3993 13.12441226269070
ONEWEB-0140             
1 47286U 20100AE  26201.36150842 -.00000153  00000+0 -46151-3 0  9990
2 47286  87.8980 344.0484 0001804 102.1735 257.9596 13.12443964269049
ONEWEB-0141             
1 47287U 20100AF  26201.33086871 -.00000036  00000+0 -13432-3 0  9994
2 47287  87.8977 344.0592 0001772  87.9679 272.1652 13.12442721269027
ONEWEB-0142             
1 47288U 20100AG  26201.31929150  .00000300  00000+0  79734-3 0  9998
2 47288  87.8971 344.0811 0002099  87.3450 272.7919 13.12443635269016
ONEWEB-0143             
1 47289U 20100AH  26201.32931733  .00000061  00000+0  13328-3 0  9991
2 47289  87.8973 344.0786 0001841  94.9454 265.1885 13.12442453268993
ONEWEB-0144             
1 47290U 20100AJ  26201.37676392  .00000359  00000+0  96118-3 0  9993
2 47290  87.8983 344.0457 0002238  95.6777 264.4607 13.12443579268925
ONEWEB-0145             
1 47291U 20100AK  26201.34795072 -.00000366  00000+0 -10524-2 0  9994
2 47291  87.8970 344.0754 0001952  96.0463 264.0888 13.12443378269117
ONEWEB-0146             
1 47292U 20100AL  26201.34456360 -.00000381  00000+0 -10934-2 0  9991
2 47292  87.8979 344.0701 0001582 104.4371 255.6933 13.12442961269024
ONEWEB-0147             
1 47293U 20100AM  26201.38692416  .00000539  00000+0  14631-2 0  9991
2 47293  87.8978 344.0442 0001922 101.7309 258.4035 13.12443699268926
ONEWEB-0115             
1 48042U 21025A   26201.31300064  .00000753  00000+0  20271-2 0  9994
2 48042  87.8984 313.6327 0001843 102.9817 257.1518 13.13465256257945
ONEWEB-0152             
1 48043U 21025B   26201.55502788 -.00000069  00000+0 -22319-3 0  9996
2 48043  87.8993 313.5832 0001900 103.3374 256.7968 13.13473035257930
ONEWEB-0153             
1 48044U 21025C   26201.60921624  .00000379  00000+0  10023-2 0  9997
2 48044  87.8980 313.5726 0002015  98.4263 261.7095 13.13470007257931
ONEWEB-0154             
1 48045U 21025D   26201.60583027  .00000324  00000+0  85219-3 0  9999
2 48045  87.8988 313.5730 0002016 105.4082 254.7270 13.13470834257894
ONEWEB-0116             
1 48046U 21025E   26201.56858094 -.00000248  00000+0 -71500-3 0  9999
2 48046  87.8989 313.5777 0001865 103.6540 256.4797 13.13470579258033
ONEWEB-0150             
1 48047U 21025F   26201.31635870  .00000206  00000+0  52839-3 0  9994
2 48047  87.8992 313.6250 0001847  94.7701 265.3639 13.13469817257894
ONEWEB-0107             
1 48048U 21025G   26201.31804194  .00000167  00000+0  42137-3 0  9998
2 48048  87.8992 313.6205 0002083  96.2626 263.8740 13.13472172257873
ONEWEB-0101             
1 48049U 21025H   26201.58550861  .00000022  00000+0  24455-4 0  9991
2 48049  87.8977 313.5798 0002113 101.2221 258.9146 13.13472220257885
ONEWEB-0113             
1 48050U 21025J   26201.59914683  .00000242  00000+0  62366-3 0  9996
2 48050  87.8983 313.4842 0001864  95.8983 264.2359 13.13891509257991
ONEWEB-0112             
1 48051U 21025K   26201.32312781  .00000041  00000+0  77450-4 0  9997
2 48051  87.8990 313.6179 0002200 100.4759 259.6618 13.13469595257941
ONEWEB-0156             
1 48052U 21025L   26201.56010587 -.00000337  00000+0 -95896-3 0  9996
2 48052  87.8989 313.5805 0001988  96.2968 263.8388 13.13470703257956
ONEWEB-0161             
1 48053U 21025M   26201.38236939  .00000370  00000+0  97877-3 0  9994
2 48053  87.8989 313.6169 0002057  94.9844 265.1520 13.13473111257866
