OBJECT_NAME,OBJECT_ID,EPOCH,MEAN_MOTION,ECCENTRICITY,INCLINATION,RA_OF_ASC_NODE,ARG_OF_PERICENTER,MEAN_ANOMALY,EPHEMERIS_TYPE,CLASSIFICATION_TYPE,NORAD_CAT_ID,ELEMENT_SET_NO,REV_AT_EPOCH,BSTAR,MEAN_MOTION_DOT,MEAN_MOTION_DDOT
ONEWEB-0130,2020-100U,2026-07-20T08:28:22.427904,13.12443964,.00019591,87.8980,344.0600,98.5367,261.5984,0,U,47276,999,26899,-.8474467E-3,-.292E-5,0
ONEWEB-0131,2020-100V,2026-07-20T08:23:29.972544,13.12442939,.0001889,87.8967,344.0750,102.3665,257.7675,0,U,47277,999,26903,-.10230527E-2,-.355E-5,0
ONEWEB-0132,2020-100W,2026-07-20T09:04:58.485216,13.12443490,.00018724,87.8968,344.0724,99.2363,260.8977,0,U,47278,999,26893,.10218312E-2,.38E-5,0
ONEWEB-0133,2020-100X,2026-07-20T09:29:09.376224,13.12443203,.00017914,87.8986,344.0483,99.4130,260.7201,0,U,47279,999,26909,.96372401E-3,.359E-5,0
ONEWEB-0134,2020-100Y,2026-07-20T08:45:27.262368,13.12443755,.00020984,87.8981,344.0518,101.0216,259.1149,0,U,47280,999,26906,-.18306579E-3,-.53E-6,0
ONEWEB-0135,2020-100Z,2026-07-20T08:03:58.195872,13.12442521,.00020424,87.8968,344.0759,104.3003,255.8352,0,U,47281,999,26908,-.59418195E-3,-.201E-5,0
ONEWEB-0136,2020-100AA,2026-07-20T08:30:48.463776,13.12443728,.00021355,87.8976,344.0564,101.8505,258.2863,0,U,47282,999,26901,-.78434052E-3,-.269E-5,0
ONEWEB-0137,2020-100AB,2026-07-20T09:19:36.260832,13.12443754,.00017834,87.8985,344.0608,94.3417,265.7915,0,U,47283,999,26892,.1351899E-2,.499E-5,0
ONEWEB-0138,2020-100AC,2026-07-20T08:47:53.767392,13.12443973,.00020789,87.8978,344.0701,98.7792,261.3572,0,U,47284,999,26900,.47258603E-4,.3E-6,0
ONEWEB-0139,2020-100AD,2026-07-20T07:56:52.361376,13.12441226,.00019105,87.8978,344.0626,95.7354,264.3993,0,U,47285,999,26907,-.26306289E-3,-.82E-6,0
ONEWEB-0140,2020-100AE,2026-07-20T08:40:34.327488,13.12443964,.00018049,87.8980,344.0484,102.1735,257.9596,0,U,47286,999,26904,-.46151345E-3,-.153E-5,0
ONEWEB-0141,2020-100AF,2026-07-20T07:56:27.056544,13.12442721,.00017726,87.8977,344.0592,87.9679,272.1652,0,U,47287,999,26902,-.13432072E-3,-.36E-6,0
ONEWEB-0142,2020-100AG,2026-07-20T07:39:46.785600,13.12443635,.00020991,87.8971,344.0811,87.3450,272.7919,0,U,47288,999,26901,.79734356E-3,.3E-5,0
ONEWEB-0143,2020-100AH,2026-07-20T07:54:13.017312,13.12442453,.00018411,87.8973,344.0786,94.9454,265.1885,0,U,47289,999,26899,.13328356E-3,.61E-6,0
ONEWEB-0144,2020-100AJ,2026-07-20T09:02:32.402688,13.12443579,.00022381,87.8983,344.0457,95.6777,264.4607,0,U,47290,999,26892,.96118215E-3,.359E-5,0
ONEWEB-0145,2020-100AK,2026-07-20T08:21:02.942208,13.12443378,.00019529,87.8970,344.0754,96.0463,264.0888,0,U,47291,999,26911,-.1052366E-2,-.366E-5,0
ONEWEB-0146,2020-100AL,2026-07-20T08:16:10.295040,13.12442961,.00015822,87.8979,344.0701,104.4371,255.6933,0,U,47292,999,26902,-.10934449E-2,-.381E-5,0
ONEWEB-0147,2020-100AM,2026-07-20T09:17:10.247424,13.12443699,.00019228,87.8978,344.0442,101.7309,258.4035,0,U,47293,999,26892,.1463144E-2,.539E-5,0
ONEWEB-0115,2021-025A,2026-07-20T07:30:43.255296,13.13465256,.00018432,87.8984,313.6327,102.9817,257.1518,0,U,48042,999,25794,.20271175E-2,.753E-5,0
ONEWEB-0152,2021-025B,2026-07-20T13:19:14.408832,13.13473035,.00019008,87.8993,313.5832,103.3374,256.7968,0,U,48043,999,25793,-.223192E-3,-.69E-6,0
ONEWEB-0153,2021-025C,2026-07-20T14:37:16.283136,13.13470007,.00020151,87.8980,313.5726,98.4263,261.7095,0,U,48044,999,25793,.10023307E-2,.379E-5,0
ONEWEB-0154,2021-025D,2026-07-20T14:32:23.735328,13.13470834,.00020168,87.8988,313.5730,105.4082,254.7270,0,U,48045,999,25789,.85219244E-3,.324E-5,0
ONEWEB-0116,2021-025E,2026-07-20T13:38:45.393216,13.13470579,.00018653,87.8989,313.5777,103.6540,256.4797,0,U,48046,999,25803,-.71500496E-3,-.248E-5,0
ONEWEB-0150,2021-025F,2026-07-20T07:35:33.391680,13.13469817,.00018476,87.8992,313.6250,94.7701,265.3639,0,U,48047,999,25789,.52839075E-3,.206E-5,0
ONEWEB-0107,2021-025G,2026-07-20T07:37:58.823616,13.13472172,.00020831,87.8992,313.6205,96.2626,263.8740,0,U,48048,999,25787,.42137047E-3,.167E-5,0
ONEWEB-0101,2021-025H,2026-07-20T14:03:07.943904,13.13472220,.00021138,87.8977,313.5798,101.2221,258.9146,0,U,48049,999,25788,.24455103E-4,.22E-6,0
ONEWEB-0113,2021-025J,2026-07-20T14:22:46.286112,13.13891509,.0001864,87.8983,313.4842,95.8983,264.2359,0,U,48050,999,25799,.62365917E-3,.242E-5,0
ONEWEB-0112,2021-025K,2026-07-20T07:45:18.242784,13.13469595,.00022007,87.8990,313.6179,100.4759,259.6618,0,U,48051,999,25794,.77449905E-4,.41E-6,0
ONEWEB-0156,2021-025L,2026-07-20T13:26:33.147168,13.13470703,.00019882,87.8989,313.5805,96.2968,263.8388,0,U,48052,999,25795,-.95896316E-3,-.337E-5,0
ONEWEB-0161,2021-025M,2026-07-20T09:10:36.715296,13.13473111,.00020575,87.8989,313.6169,94.9844,265.1520,0,U,48053,999,25786,.97876821E-3,.37E-5,0
